ONEWEB-0683             
1 56719U 23068K   25283.43526172  .00000050  00000+0  98043-4 0  9999
2 56719  87.8982 309.0238 0002163  92.5694 267.5684 13.15546956116588
ONEWEB-0684             
1 56720U 23068L   25283.51924308  .00000090  00000+0  20370-3 0  9994
2 56720  87.8971 309.0028 0002290 133.0891 227.0431 13.15546938116420
ONEWEB-0686             
1 56721U 23068M   25283.44166802  .00000150  00000+0  35768-3 0  9998
2 56721  87.8959 278.5581 0002162  92.4213 267.7165 13.16594407118854
ONEWEB-0694             
1 56722U 23068N   25283.48442256 -.00000078  00000+0 -23701-3 0  9998
2 56722  87.8982 278.4840 0002309  83.4833 276.6561 13.16594054118913
ONEWEB-0696             
1 56723U 23068P   25283.47645999 -.00000152  00000+0 -43711-3 0  9993
2 56723  87.8979 309.0670 0001698 102.8822 257.2498 13.15548090116534
ONEWEB-0703             
1 56724U 23068Q   25283.48596935 -.00000135  00000+0 -39300-3 0  9990
2 56724  87.8975 309.0485 0000952 118.3357 241.7869 13.15547547116426
ONEWEB-0721             
1 56725U 23068R   25283.38707815  .00000107  00000+0  22227-3 0  9998
2 56725  86.6852 165.1728 0001607  75.1032 285.0279 13.22447363124920
